NORAD_CAT_ID,OBJECT_NAME,OBJECT_TYPE,EPOCH,MEAN_MOTION,ECCENTRICITY,INCLINATION,RA_OF_ASC_NODE,ARG_OF_PERICENTER,MEAN_ANOMALY,BSTAR,MEAN_MOTION_DOT,MEAN_MOTION_DDOT,TLE_LINE0,TLE_LINE1,TLE_LINE2,SEMIMAJOR_AXIS,PERIOD,APOGEE,PERIGEE,DECAYED
53421.0,STARLINK-4545,PAYLOAD,2023-04-22 20:29:53,15.08843157,0.000102,53.212,155.9928,107.8012,252.3092,0.00011946,1.614e-05,0.0,0 STARLINK-4545,1 53421U 22097AK  23112.85408832  .00001614  00000-0  11946-3 0  9998,2 53421  53.2120 155.9928 0001020 107.8012 252.3092 15.08843157 39839,6917.871,95.437,540.441,539.03,0.0
53421.0,STARLINK-4545,PAYLOAD,2023-04-23 12:23:44,15.0883799,0.0001334,53.2129,153.0171,124.5499,235.5619,0.00053694,8.267e-05,0.0,0 STARLINK-4545,1 53421U 22097AK  23113.51649137  .00008267  00000-0  53694-3 0  9994,2 53421  53.2129 153.0171 0001334 124.5499 235.5619 15.08837990 39476,6917.887,95.438,540.674,538.829,0.0
53421.0,STARLINK-4545,PAYLOAD,2023-04-24 12:14:30,15.08896808,0.0001468,53.2138,148.5562,104.6409,255.4746,0.0023289,0.00037029,0.0,0 STARLINK-4545,1 53421U 22097AK  23114.51008078  .00037029  00000-0  23289-2 0  9992,2 53421  53.2138 148.5562 0001468 104.6409 255.4746 15.08896808 39629,6917.707,95.434,540.587,538.556,0.0
53421.0,STARLINK-4545,PAYLOAD,2023-04-25 08:54:32,15.08835279,0.0001193,53.2149,144.6879,103.4456,256.6669,0.00014548,2.028e-05,0.0,0 STARLINK-4545,1 53421U 22097AK  23115.37120942  .00002028  00000-0  14548-3 0  9992,2 53421  53.2149 144.6879 0001193 103.4456 256.6669 15.08835279 39759,6917.895,95.438,540.585,538.935,0.0
53421.0,STARLINK-4545,PAYLOAD,2023-04-25 13:40:42,15.08826415,0.0001329,53.2148,143.7959,102.6952,257.4188,0.00012387,1.683e-05,0.0,0 STARLINK-4545,1 53421U 22097AK  23115.56993322  .00001683  00000-0  12387-3 0  9998,2 53421  53.2148 143.7959 0001329 102.6952 257.4188 15.08826415 40243,6917.922,95.438,540.706,538.868,0.0
53421.0,STARLINK-4545,PAYLOAD,2023-04-26 11:56:06,15.08835138,0.0001329,53.2147,139.6362,109.1274,250.9862,0.00035429,5.354e-05,0.0,0 STARLINK-4545,1 53421U 22097AK  23116.49729864  .00005354  00000-0  35429-3 0  9990,2 53421  53.2147 139.6362 0001329 109.1274 250.9862 15.08835138 40387,6917.895,95.438,540.68,538.841,0.0
53421.0,STARLINK-4545,PAYLOAD,2023-04-26 18:17:39,15.08838448,0.0001317,53.2146,138.4474,109.6163,250.4972,0.00035985,5.443e-05,0.0,0 STARLINK-4545,1 53421U 22097AK  23116.76225881  .00005443  00000-0  35985-3 0  9996,2 53421  53.2146 138.4474 0001317 109.6163 250.4972 15.08838448 40425,6917.885,95.438,540.661,538.839,0.0
53421.0,STARLINK-4545,PAYLOAD,2023-04-27 10:11:30,15.08851174,0.0001314,53.2145,135.4735,110.114,249.9994,0.00049409,7.587e-05,0.0,0 STARLINK-4545,1 53421U 22097AK  23117.42465534  .00007587  00000-0  49409-3 0  9998,2 53421  53.2145 135.4735 0001314 110.1140 249.9994 15.08851174 40529,6917.846,95.437,540.62,538.802,0.0
53421.0,STARLINK-4545,PAYLOAD,2023-04-28 05:16:07,15.08844495,0.0001364,53.2143,131.9042,105.8707,254.2436,0.00012413,1.688e-05,0.0,0 STARLINK-4545,1 53421U 22097AK  23118.21953489  .00001688  00000-0  12413-3 0  9998,2 53421  53.2143 131.9042 0001364 105.8707 254.2436 15.08844495 40184,6917.867,95.437,540.675,538.788,0.0
53421.0,STARLINK-4545,PAYLOAD,2023-04-28 08:26:54,15.08843916,0.0001346,53.2145,131.3096,105.7231,254.391,0.00011387,1.525e-05,0.0,0 STARLINK-4545,1 53421U 22097AK  23118.35201504  .00001525  00000-0  11387-3 0  9996,2 53421  53.2145 131.3096 0001346 105.7231 254.3910 15.08843916 40668,6917.868,95.437,540.665,538.802,0.0
53421.0,STARLINK-4545,PAYLOAD,2023-04-29 09:53:04,15.08842949,0.0001316,53.2144,126.5518,97.6571,262.4571,3.559e-05,2.79e-06,0.0,0 STARLINK-4545,1 53421U 22097AK  23119.41185566  .00000279  00000-0  35590-4 0  9991,2 53421  53.2144 126.5518 0001316  97.6571 262.4571 15.08842949 40821,6917.871,95.437,540.647,538.826,0.0
53421.0,STARLINK-4545,PAYLOAD,2023-04-29 13:03:50,15.08843203,0.000131,53.2143,125.9569,97.6353,262.4788,4.2496e-05,3.89e-06,0.0,0 STARLINK-4545,1 53421U 22097AK  23119.54433540  .00000389  00000-0  42496-4 0  9998,2 53421  53.2143 125.9569 0001310  97.6353 262.4788 15.08843203 40386,6917.871,95.437,540.642,538.829,0.0
53421.0,STARLINK-4545,PAYLOAD,2023-04-30 09:43:51,15.08838685,0.0001283,53.2152,122.0912,96.9556,263.1582,4.7997e-05,4.76e-06,0.0,0 STARLINK-4545,1 53421U 22097AK  23120.40545971  .00000476  00000-0  47997-4 0  9995,2 53421  53.2152 122.0912 0001283  96.9556 263.1582 15.08838685 40515,6917.884,95.438,540.637,538.862,0.0
53421.0,STARLINK-4545,PAYLOAD,2023-05-01 11:10:01,15.08839925,0.0001381,53.2155,117.3313,107.4943,252.62,6.7379e-05,7.85e-06,0.0,0 STARLINK-4545,1 53421U 22097AK  23121.46529941  .00000785  00000-0  67379-4 0  9990,2 53421  53.2155 117.3313 0001381 107.4943 252.6200 15.08839925 40672,6917.881,95.438,540.701,538.79,0.0
53421.0,STARLINK-4545,PAYLOAD,2023-05-02 09:25:25,15.08845432,0.0001367,53.2158,113.1688,99.3687,260.746,0.00013893,1.924e-05,0.0,0 STARLINK-4545,1 53421U 22097AK  23122.39265512  .00001924  00000-0  13893-3 0  9991,2 53421  53.2158 113.1688 0001367  99.3687 260.7460 15.08845432 41277,6917.864,95.437,540.674,538.783,0.0
53421.0,STARLINK-4545,PAYLOAD,2023-05-02 15:46:58,15.08839799,0.0001409,53.2159,111.9788,100.1315,259.9836,8.6306e-05,1.086e-05,0.0,0 STARLINK-4545,1 53421U 22097AK  23122.65761993  .00001086  00000-0  86306-4 0  9993,2 53421  53.2159 111.9788 0001409 100.1315 259.9836 15.08839799 40850,6917.881,95.438,540.721,538.771,0.0
53421.0,STARLINK-4545,PAYLOAD,2023-05-03 09:16:12,15.08841596,0.0001358,53.2163,108.7089,96.9738,263.1409,7.3155e-05,8.77e-06,0.0,0 STARLINK-4545,1 53421U 22097AK  23123.38625928  .00000877  00000-0  73155-4 0  9996,2 53421  53.2163 108.7089 0001358  96.9738 263.1409 15.08841596 41422,6917.876,95.437,540.68,538.801,0.0
53421.0,STARLINK-4545,PAYLOAD,2023-05-04 05:56:13,15.08839693,0.000128,53.2164,104.8439,98.9384,261.1753,-2.3293e-05,-6.59e-06,0.0,0 STARLINK-4545,1 53421U 22097AK  23124.24738403 -.00000659  00000-0 -23293-4 0  9993,2 53421  53.2164 104.8439 0001280  98.9384 261.1753 15.08839693 41090,6917.881,95.438,540.632,538.861,0.0
53421.0,STARLINK-4545,PAYLOAD,2023-05-04 09:07:00,15.08841499,0.0001203,53.2163,104.2488,95.4379,264.6751,-1.7859e-05,-5.72e-06,0.0,0 STARLINK-4545,1 53421U 22097AK  23124.37986260 -.00000572  00000-0 -17859-4 0  9998,2 53421  53.2163 104.2488 0001203  95.4379 264.6751 15.08841499 41574,6917.876,95.437,540.573,538.909,0.0
53421.0,STARLINK-4545,PAYLOAD,2023-05-05 07:22:23,15.08846529,0.0001227,53.2161,100.0853,96.1677,263.9455,0.0001067,1.411e-05,0.0,0 STARLINK-4545,1 53421U 22097AK  23125.30721786  .00001411  00000-0  10670-3 0  9996,2 53421  53.2161 100.0853 0001227  96.1677 263.9455 15.08846529 41254,6917.86,95.437,540.574,538.877,0.0
53421.0,STARLINK-4545,PAYLOAD,2023-05-05 23:16:15,15.08836142,0.0001216,53.216,97.1116,93.3794,266.7337,6.3745e-05,7.27e-06,0.0,0 STARLINK-4545,1 53421U 22097AK  23125.96962714  .00000727  00000-0  63745-4 0  9997,2 53421  53.2160  97.1116 0001216  93.3794 266.7337 15.08836142 41359,6917.892,95.438,540.598,538.916,0.0
53421.0,STARLINK-4545,PAYLOAD,2023-05-06 07:13:11,15.08842391,0.0001265,53.216,95.6251,91.5264,268.5873,0.00012004,1.623e-05,0.0,0 STARLINK-4545,1 53421U 22097AK  23126.30082343  .00001623  00000-0  12004-3 0  9994,2 53421  53.2160  95.6251 0001265  91.5264 268.5873 15.08842391 41862,6917.873,95.437,540.613,538.863,0.0
53421.0,STARLINK-4545,PAYLOAD,2023-05-07 03:53:10,15.08859391,0.0001188,53.2162,91.758,98.0387,262.074,0.00016586,2.354e-05,0.0,0 STARLINK-4545,1 53421U 22097AK  23127.16192958  .00002354  00000-0  16586-3 0  9994,2 53421  53.2162  91.7580 0001188  98.0387 262.0740 15.08859391 41532,6917.821,95.436,540.508,538.864,0.0
53421.0,STARLINK-4545,PAYLOAD,2023-05-08 03:43:59,15.08834231,0.0001247,53.2158,87.2983,91.5101,268.6034,2.4378e-05,1e-06,0.0,0 STARLINK-4545,1 53421U 22097AK  23128.15554900  .00000100  00000-0  24378-4 0  9999,2 53421  53.2158  87.2983 0001247  91.5101 268.6034 15.08834231 41682,6917.898,95.438,540.626,538.9,0.0
53421.0,STARLINK-4545,PAYLOAD,2023-05-08 14:51:41,15.08840283,0.000119,53.2161,85.2178,78.4335,281.6791,0.00010016,1.307e-05,0.0,0 STARLINK-4545,1 53421U 22097AK  23128.61922808  .00001307  00000-0  10016-3 0  9999,2 53421  53.2161  85.2178 0001190  78.4335 281.6791 15.08840283 42219,6917.88,95.438,540.568,538.921,0.0
53421.0,STARLINK-4545,PAYLOAD,2023-05-09 03:34:45,15.08853612,0.0001172,53.2154,82.8388,75.2728,284.8394,0.000393,5.975e-05,0.0,0 STARLINK-4545,1 53421U 22097AK  23129.14914305  .00005975  00000-0  39300-3 0  9993,2 53421  53.2154  82.8388 0001172  75.2728 284.8394 15.08853612 41839,6917.839,95.437,540.515,538.893,0.0
53421.0,STARLINK-4545,PAYLOAD,2023-05-10 03:25:33,15.08847921,0.0001132,53.2163,78.3798,90.9959,269.1163,0.00023699,3.487e-05,0.0,0 STARLINK-4545,1 53421U 22097AK  23130.14274497  .00003487  00000-0  23699-3 0  9996,2 53421  53.2163  78.3798 0001132  90.9959 269.1163 15.08847921 42444,6917.856,95.437,540.504,538.938,0.0
53421.0,STARLINK-4545,PAYLOAD,2023-05-11 03:16:20,15.08845344,0.0001217,53.2171,73.9216,95.3271,264.786,0.00011883,1.604e-05,0.0,0 STARLINK-4545,1 53421U 22097AK  23131.13634506  .00001604  00000-0  11883-3 0  9998,2 53421  53.2171  73.9216 0001217  95.3271 264.7860 15.08845344 42137,6917.864,95.437,540.571,538.887,0.0
53421.0,STARLINK-4545,PAYLOAD,2023-05-12 03:07:08,15.08832443,0.0001206,53.216,69.4586,91.9469,268.1662,1.3939e-05,-6.6e-07,0.0,0 STARLINK-4545,1 53421U 22097AK  23132.12995440 -.00000066  00000-0  13939-4 0  9992,2 53421  53.2160  69.4586 0001206  91.9469 268.1662 15.08832443 42284,6917.903,95.438,540.603,538.934,0.0
53421.0,STARLINK-4545,PAYLOAD,2023-05-12 23:47:08,15.08846271,0.0001142,53.2164,65.5929,104.6595,255.4523,0.00016157,2.285e-05,0.0,0 STARLINK-4545,1 53421U 22097AK  23132.99107089  .00002285  00000-0  16157-3 0  9999,2 53421  53.2164  65.5929 0001142 104.6595 255.4523 15.08846271 42411,6917.861,95.437,540.516,538.936,0.0
